TDRS 3                  
1 19548U 88091B   22295.48766796 -.00000291  00000+0  00000+0 0  9997
2 19548  13.6244 350.3232 0036762 325.8107 201.2974  1.00265660112013
HST                     
1 20580U 90037B   22295.52143389  .00002837  00000+0  15444-3 0  9999
2 20580  28.4708  46.5427 0002343 337.1567  81.0893 15.11100794585453
TDRS 5                  
1 21639U 91054B   22295.40396931  .00000096  00000+0  00000+0 0  9998
2 21639  14.2292   3.6478 0022616 358.0628   7.1811  1.00281385114349
TDRS 6                  
1 22314U 93003B   22295.05786852 -.00000285  00000+0  00000+0 0  9992
2 22314  14.1400   6.9085 0009553 140.7240 217.7679  1.00267690109024
TDRS 7                  
1 23613U 95035B   22294.87074652 -.00000193  00000+0  00000+0 0  9997
2 23613  13.9306 357.6086 0024547  58.1539  12.8866  1.00271745 99777
ISS (ZARYA)             
1 25544U 98067A   22295.53321650  .00010107  00000+0  18716-3 0  9999
2 25544  51.6431  65.6881 0005224   5.7159  87.6929 15.49638322364935
LANDSAT 7               
1 25682U 99020A   22295.37417530 -.00000389  00000+0 -72176-4 0  9991
2 25682  97.9652 338.5696 0001690  82.6103 277.5302 14.59818400251081
TERRA                   
1 25994U 99068A   22295.50188755  .00000350  00000+0  84379-4 0  9992
2 25994  98.1253   4.4488 0002878  94.3837 323.1818 14.58887394215120
TDRS 8                  
1 26388U 00034A   22294.86876282 -.00000220  00000+0  00000+0 0  9993
2 26388  10.5663  41.6656 0017244 339.1996  51.3390  1.00266528 81804
TIMED                   
1 26998U 01055B   22295.51629769  .00001060  00000+0  11696-3 0  9992
2 26998  74.0743  26.4730 0002210 260.8080  99.2852 14.88885443131915
TDRS 9                  
1 27389U 02011A   22295.31433484 -.00000274  00000+0  00000+0 0  9995
2 27389   9.2884  59.6437 0023311 294.4517  87.4964  1.00276446 77077
AQUA                    
1 27424U 02022A   22295.52256230  .00000698  00000+0  16397-3 0  9991
2 27424  98.2581 236.2714 0001113 105.2685  22.2439 14.57453578 88694
TDRS 10                 
1 27566U 02055A   22295.53868723  .00000101  00000+0  00000+0 0  9990
2 27566   8.4343  49.2316 0004013 338.2909  26.3115  1.00267884 72864
SORCE                   
1 27651U 03004A   22295.20738449  .00001908  00000+0  20613-3 0  9997
2 27651  39.9945 229.5829 0024064 283.0380  76.7723 14.90272927 71989
AURA                    
1 28376U 04026A   22295.53489556  .00000696  00000+0  16452-3 0  9994
2 28376  98.2201 237.0980 0001297  89.5232 270.6115 14.57125288971739
SWIFT                   
1 28485U 04047A   22295.29366370  .00004402  00000+0  25382-3 0  9990
2 28485  20.5557 139.4921 0010628 105.9091 254.2515 15.07261196982702
THEMIS A                
1 30580U 07004A   22295.21853116 -.00000341  00000+0 -54586-1 0  9992
2 30580  13.1707 332.1298 8367376 191.9126 110.5518  0.87835551 54242
THEMIS D                
1 30797U 07004D   22295.32949139 -.00000394  00000+0  00000+0 0  9992
2 30797   8.9921 320.8361 8322751 206.3777 157.5172  0.87837719 29357
THEMIS E                
1 30798U 07004E   22295.52339757 -.00000424  00000+0  00000+0 0  9998
2 30798  10.0175 335.3607 8314750 193.8585 209.2680  0.87841163 54191
AIM                     
1 31304U 07015A   22295.37246717  .00009413  00000+0  44250-3 0  9995
2 31304  97.8539 219.4516 0002840 324.8808  35.2238 15.19819272850459
FGRST (GLAST)           
1 33053U 08029A   22295.51536267  .00002352  00000+0  11442-3 0  9994
2 33053  25.5842  20.5413 0011666 210.9146 149.0703 15.12564652792953
WISE                    
1 36119U 09071A   22295.37281699  .00007074  00000+0  20910-3 0  9994
2 36119  97.2287 327.3091 0002193 159.0839 201.0494 15.35229741714968
TDRS 11                 
1 39070U 13004A   22295.53438480  .00000083  00000+0  00000+0 0  9991
2 39070   2.8308 349.8417 0004202  82.1853 336.9020  1.00270378 35619
TDRS 12                 
1 39504U 14004A   22295.41755883 -.00000267  00000+0  00000+0 0  9995
2 39504   3.7622 349.6100 0002478 175.9402 334.7011  1.00268889 32078
GPM-CORE                
1 39574U 14009C   22295.57650401  .00011953  00000+0  17205-3 0  9996
2 39574  64.9984 115.6230 0007827 264.8082  95.2171 15.56375546491389
MMS 1                   
1 40482U 15011A   22291.72839515 -.00000869  00000+0  00000+0 0  9994
2 40482  30.4863  95.4344 8821982  63.4973 111.7079  0.28547760 13653
MMS 2                   
1 40483U 15011B   22291.73256182 -.00000868  00000+0  00000+0 0  9998
2 40483  30.4891  95.4381 8823869  63.4907 112.1714  0.28554822 13714
MMS 3                   
1 40484U 15011C   22291.73533959 -.00000867  00000+0  00000+0 0  9998
2 40484  30.4907  95.4262 8822732  63.4900 112.4788  0.28547890 13397
MMS 4                   
1 40485U 15011D   22291.73672848 -.00000867  00000+0  00000+0 0  9990
2 40485  30.4862  95.4626 8822263  63.4606 112.6353  0.28554916 13605
TDRS 13                 
1 42915U 17047A   22295.35172252 -.00000098  00000+0  00000+0 0  9993
2 42915   4.3067 334.7266 0014981 124.8882  46.3857  1.00272586 18979
JPSS-1                  
1 43013U 17073A   22295.58883123  .00000076  00000+0  56696-4 0  9995
2 43013  98.7256 232.1943 0001602  74.2267 285.9085 14.19552619255261
